{"type": "FeatureCollection", "features": [ {"type": "Feature", "properties": {"norad_id": 33153, "name": "INTELSAT 25 (IS-25)", "group": "intelsat", "lat": 2.184512414080549, "lon": -176.92991634425226, "alt_km": 35781.90427162542, "timestamp": "2025-12-13T08:49:15.361181+00:00", "meta": {"OBJECT_NAME": "INTELSAT 25 (IS-25)", "OBJECT_ID": "2008-034A", "EPOCH": "2025-12-12T23:36:13.851360", "MEAN_MOTION": 1.00271805, "ECCENTRICITY": 0.00049944, "INCLINATION": 2.2286, "RA_OF_ASC_NODE": 82.6464, "ARG_OF_PERICENTER": 179.7951, "MEAN_ANOMALY": 142.0467, "EPHEMERIS_TYPE": 0, "CLASSIFICATION_TYPE": "U", "NORAD_CAT_ID": 33153, "ELEMENT_SET_NO": 999, "REV_AT_EPOCH": 6382, "BSTAR": 0, "MEAN_MOTION_DOT": -2.11e-06, "MEAN_MOTION_DDOT": 0}, "tle": {"line1": "1 33153U 08034A   25346.98349365 -.00000211  00000+0  00000+0 0  9990", "line2": "2 33153   2.2286  82.6464 0004994 179.7951 142.0467  1.00271805 63829"}}, "geometry": {"type": "Point", "coordinates": [-176.92991634425226, 2.184512414080549]}}, {"type": "Feature", "properties": {"norad_id": 33376, "name": "GALAXY 19 (G-19)", "group": "intelsat", "lat": 0.02840651565062744, "lon": 117.58775166503229, "alt_km": 35795.9126698298, "timestamp": "2025-12-13T08:49:15.361193+00:00", "meta": {"OBJECT_NAME": "GALAXY 19 (G-19)", "OBJECT_ID": "2008-045A", "EPOCH": "2025-12-12T23:17:30.645312", "MEAN_MOTION": 1.00269749, "ECCENTRICITY": 0.00026009, "INCLINATION": 0.0185, "RA_OF_ASC_NODE": 357.3328, "ARG_OF_PERICENTER": 267.4977, "MEAN_ANOMALY": 69.4562, "EPHEMERIS_TYPE": 0, "CLASSIFICATION_TYPE": "U", "NORAD_CAT_ID": 33376, "ELEMENT_SET_NO": 999, "REV_AT_EPOCH": 6303, "BSTAR": 0, "MEAN_MOTION_DOT": 0, "MEAN_MOTION_DDOT": 0}, "tle": {"line1": "1 33376U 08045A   25346.97049358  .00000000  00000+0  00000+0 0  9992", "line2": "2 33376   0.0185 357.3328 0002600 267.4977  69.4562  1.00269749 63031"}}, "geometry": {"type": "Point", "coordinates": [117.58775166503229, 0.02840651565062744]}}, {"type": "Feature", "properties": {"norad_id": 35493, "name": "FM-5", "group": "intelsat", "lat": -0.001075620067987901, "lon": 128.45730520655326, "alt_km": 35783.72883501313, "timestamp": "2025-12-13T08:49:15.361205+00:00", "meta": {"OBJECT_NAME": "FM-5", "OBJECT_ID": "2009-034A", "EPOCH": "2025-12-12T21:37:51.926016", "MEAN_MOTION": 1.0027111, "ECCENTRICITY": 7.77e-05, "INCLINATION": 0.0177, "RA_OF_ASC_NODE": 289.9494, "ARG_OF_PERICENTER": 236.3866, "MEAN_ANOMALY": 153.8282, "EPHEMERIS_TYPE": 0, "CLASSIFICATION_TYPE": "U", "NORAD_CAT_ID": 35493, "ELEMENT_SET_NO": 999, "REV_AT_EPOCH": 4477, "BSTAR": 0, "MEAN_MOTION_DOT": -1.88e-06, "MEAN_MOTION_DDOT": 0}, "tle": {"line1": "1 35493U 09034A   25346.90129544 -.00000188  00000+0  00000+0 0  9990", "line2": "2 35493   0.0177 289.9494 0000777 236.3866 153.8282  1.00271110 44775"}}, "geometry": {"type": "Point", "coordinates": [128.45730520655326, -0.001075620067987901]}}, {"type": "Feature", "properties": {"norad_id": 36097, "name": "INTELSAT 14 (IS-14)", "group": "intelsat", "lat": 0.00856621466892963, "lon": 169.58531242197105, "alt_km": 35787.320503808565, "timestamp": "2025-12-13T08:49:15.361217+00:00", "meta": {"OBJECT_NAME": "INTELSAT 14 (IS-14)", "OBJECT_ID": "2009-064A", "EPOCH": "2025-12-12T23:32:21.722208", "MEAN_MOTION": 1.00272237, "ECCENTRICITY": 0.00024896, "INCLINATION": 0.0163, "RA_OF_ASC_NODE": 33.8162, "ARG_OF_PERICENTER": 233.0714, "MEAN_ANOMALY": 123.1283, "EPHEMERIS_TYPE": 0, "CLASSIFICATION_TYPE": "U", "NORAD_CAT_ID": 36097, "ELEMENT_SET_NO": 999, "REV_AT_EPOCH": 5873, "BSTAR": 0, "MEAN_MOTION_DOT": -2.61e-06, "MEAN_MOTION_DDOT": 0}, "tle": {"line1": "1 36097U 09064A   25346.98080697 -.00000261  00000+0  00000+0 0  9999", "line2": "2 36097   0.0163  33.8162 0002489 233.0714 123.1283  1.00272237 58730"}}, "geometry": {"type": "Point", "coordinates": [169.58531242197105, 0.00856621466892963]}}, {"type": "Feature", "properties": {"norad_id": 36106, "name": "INTELSAT 15 (IS-15)", "group": "intelsat", "lat": -0.0055578669394396344, "lon": -60.225809384846734, "alt_km": 35777.50811954657, "timestamp": "2025-12-13T08:49:15.361229+00:00", "meta": {"OBJECT_NAME": "INTELSAT 15 (IS-15)", "OBJECT_ID": "2009-067A", "EPOCH": "2025-12-12T22:26:47.239008", "MEAN_MOTION": 1.00272291, "ECCENTRICITY": 0.00023097, "INCLINATION": 0.0189, "RA_OF_ASC_NODE": 295.6726, "ARG_OF_PERICENTER": 334.1519, "MEAN_ANOMALY": 233.8999, "EPHEMERIS_TYPE": 0, "CLASSIFICATION_TYPE": "U", "NORAD_CAT_ID": 36106, "ELEMENT_SET_NO": 999, "REV_AT_EPOCH": 3936, "BSTAR": 0, "MEAN_MOTION_DOT": -1.73e-06, "MEAN_MOTION_DDOT": 0}, "tle": {"line1": "1 36106U 09067A   25346.93526897 -.00000173  00000+0  00000+0 0  9997", "line2": "2 36106   0.0189 295.6726 0002309 334.1519 233.8999  1.00272291 39361"}}, "geometry": {"type": "Point", "coordinates": [-60.225809384846734, -0.0055578669394396344]}}, {"type": "Feature", "properties": {"norad_id": 36131, "name": "DIRECTV 12", "group": "intelsat", "lat": 0.01072385900647286, "lon": 111.89840678175878, "alt_km": 35787.051189595775, "timestamp": "2025-12-13T08:49:15.361241+00:00", "meta": {"OBJECT_NAME": "DIRECTV 12", "OBJECT_ID": "2009-075A", "EPOCH": "2025-12-12T21:33:07.379712", "MEAN_MOTION": 1.00272368, "ECCENTRICITY": 5.628e-05, "INCLINATION": 0.0421, "RA_OF_ASC_NODE": 134.0274, "ARG_OF_PERICENTER": 219.2719, "MEAN_ANOMALY": 309.1038, "EPHEMERIS_TYPE": 0, "CLASSIFICATION_TYPE": "U", "NORAD_CAT_ID": 36131, "ELEMENT_SET_NO": 999, "REV_AT_EPOCH": 4468, "BSTAR": 0, "MEAN_MOTION_DOT": -9.1e-07, "MEAN_MOTION_DDOT": 0}, "tle": {"line1": "1 36131U 09075A   25346.89800208 -.00000091  00000+0  00000+0 0  9999", "line2": "2 36131   0.0421 134.0274 0000562 219.2719 309.1038  1.00272368 44683"}}, "geometry": {"type": "Point", "coordinates": [111.89840678175878, 0.01072385900647286]}}, {"type": "Feature", "properties": {"norad_id": 36397, "name": "INTELSAT 16 (IS-16)", "group": "intelsat", "lat": 0.006902845928940716, "lon": 138.39371460195954, "alt_km": 35791.1102944742, "timestamp": "2025-12-13T08:49:15.361253+00:00", "meta": {"OBJECT_NAME": "INTELSAT 16 (IS-16)", "OBJECT_ID": "2010-006A", "EPOCH": "2025-12-12T23:23:22.582752", "MEAN_MOTION": 1.00272101, "ECCENTRICITY": 0.00020652, "INCLINATION": 0.0077, "RA_OF_ASC_NODE": 333.3523, "ARG_OF_PERICENTER": 290.6328, "MEAN_ANOMALY": 92.5778, "EPHEMERIS_TYPE": 0, "CLASSIFICATION_TYPE": "U", "NORAD_CAT_ID": 36397, "ELEMENT_SET_NO": 999, "REV_AT_EPOCH": 5778, "BSTAR": 0, "MEAN_MOTION_DOT": -2.32e-06, "MEAN_MOTION_DDOT": 0}, "tle": {"line1": "1 36397U 10006A   25346.97456693 -.00000232  00000+0  00000+0 0  9990", "line2": "2 36397   0.0077 333.3523 0002065 290.6328  92.5778  1.00272101 57788"}}, "geometry": {"type": "Point", "coordinates": [138.39371460195954, 0.006902845928940716]}}, {"type": "Feature", "properties": {"norad_id": 37185, "name": "XM-5", "group": "intelsat", "lat": 0.0058585858946640776, "lon": 99.40436968721484, "alt_km": 35781.432342811226, "timestamp": "2025-12-13T08:49:15.361264+00:00", "meta": {"OBJECT_NAME": "XM-5", "OBJECT_ID": "2010-053A", "EPOCH": "2025-12-12T21:29:37.715424", "MEAN_MOTION": 1.00273281, "ECCENTRICITY": 0.00015644, "INCLINATION": 0.0594, "RA_OF_ASC_NODE": 271.8058, "ARG_OF_PERICENTER": 237.8233, "MEAN_ANOMALY": 139.4218, "EPHEMERIS_TYPE": 0, "CLASSIFICATION_TYPE": "U", "NORAD_CAT_ID": 37185, "ELEMENT_SET_NO": 999, "REV_AT_EPOCH": 5561, "BSTAR": 0, "MEAN_MOTION_DOT": -1.1e-07, "MEAN_MOTION_DDOT": 0}, "tle": {"line1": "1 37185U 10053A   25346.89557541 -.00000011  00000+0  00000+0 0  9998", "line2": "2 37185   0.0594 271.8058 0001564 237.8233 139.4218  1.00273281 55618"}}, "geometry": {"type": "Point", "coordinates": [99.40436968721484, 0.0058585858946640776]}}, {"type": "Feature", "properties": {"norad_id": 37238, "name": "INTELSAT 17 (IS-17)", "group": "intelsat", "lat": -0.016881374152101475, "lon": -79.37499243571081, "alt_km": 35775.912560838624, "timestamp": "2025-12-13T08:49:15.361277+00:00", "meta": {"OBJECT_NAME": "INTELSAT 17 (IS-17)", "OBJECT_ID": "2010-065B", "EPOCH": "2025-12-12T22:21:17.764704", "MEAN_MOTION": 1.00271466, "ECCENTRICITY": 0.00025323, "INCLINATION": 0.0073, "RA_OF_ASC_NODE": 314.6662, "ARG_OF_PERICENTER": 308.861, "MEAN_ANOMALY": 219.6773, "EPHEMERIS_TYPE": 0, "CLASSIFICATION_TYPE": "U", "NORAD_CAT_ID": 37238, "ELEMENT_SET_NO": 999, "REV_AT_EPOCH": 5138, "BSTAR": 0, "MEAN_MOTION_DOT": 1.1e-07, "MEAN_MOTION_DDOT": 0}, "tle": {"line1": "1 37238U 10065B   25346.93145561  .00000011  00000+0  00000+0 0  9999", "line2": "2 37238   0.0073 314.6662 0002532 308.8610 219.6773  1.00271466 51380"}}, "geometry": {"type": "Point", "coordinates": [-79.37499243571081, -0.016881374152101475]}}, {"type": "Feature", "properties": {"norad_id": 37392, "name": "INTELSAT 28 (IS-28)", "group": "intelsat", "lat": 1.3050298778739233, "lon": -177.11454469550327, "alt_km": 35783.686226121485, "timestamp": "2025-12-13T08:49:15.361288+00:00", "meta": {"OBJECT_NAME": "INTELSAT 28 (IS-28)", "OBJECT_ID": "2011-016A", "EPOCH": "2025-12-12T23:36:06.363072", "MEAN_MOTION": 1.0027313, "ECCENTRICITY": 0.00037789, "INCLINATION": 1.3254, "RA_OF_ASC_NODE": 85.048, "ARG_OF_PERICENTER": 181.1686, "MEAN_ANOMALY": 138.0475, "EPHEMERIS_TYPE": 0, "CLASSIFICATION_TYPE": "U", "NORAD_CAT_ID": 37392, "ELEMENT_SET_NO": 999, "REV_AT_EPOCH": 5141, "BSTAR": 0, "MEAN_MOTION_DOT": -2.12e-06, "MEAN_MOTION_DDOT": 0}, "tle": {"line1": "1 37392U 11016A   25346.98340698 -.00000212  00000+0  00000+0 0  9994", "line2": "2 37392   1.3254  85.0480 0003778 181.1686 138.0475  1.00273130 51418"}}, "geometry": {"type": "Point", "coordinates": [-177.11454469550327, 1.3050298778739233]}}]}